[{"OBJECT_NAME":"CUBESX-HSE 3 (RS42S)","OBJECT_ID":"2023-091N","EPOCH":"2026-03-09T22:57:25.321248","MEAN_MOTION":15.286147,"ECCENTRICITY":0.00127191,"INCLINATION":97.5203,"RA_OF_ASC_NODE":133.4295,"ARG_OF_PERICENTER":86.5376,"MEAN_ANOMALY":273.7318,"EPHEMERIS_TYPE":0,"CLASSIFICATION_TYPE":"U","NORAD_CAT_ID":57178,"ELEMENT_SET_NO":999,"REV_AT_EPOCH":14925,"BSTAR":0.00059055694,"MEAN_MOTION_DOT":0.00016417,"MEAN_MOTION_DDOT":0},{"OBJECT_NAME":"STARLINK-34156","OBJECT_ID":"2025-110N","EPOCH":"2026-03-09T07:13:58.676448","MEAN_MOTION":15.30194747,"ECCENTRICITY":0.00011709,"INCLINATION":53.1605,"RA_OF_ASC_NODE":28.5213,"ARG_OF_PERICENTER":81.6127,"MEAN_ANOMALY":278.5006,"EPHEMERIS_TYPE":0,"CLASSIFICATION_TYPE":"U","NORAD_CAT_ID":64108,"ELEMENT_SET_NO":999,"REV_AT_EPOCH":4582,"BSTAR":0.0012556455,"MEAN_MOTION_DOT":0.00037009,"MEAN_MOTION_DDOT":0}]
